[{"OBJECT_NAME":"STARLINK-2235","OBJECT_ID":"2021-041AE","EPOCH":"2026-03-09T09:04:03.505440","MEAN_MOTION":15.06400283,"ECCENTRICITY":0.0001518,"INCLINATION":53.0554,"RA_OF_ASC_NODE":98.0301,"ARG_OF_PERICENTER":100.5104,"MEAN_ANOMALY":259.6056,"EPHEMERIS_TYPE":0,"CLASSIFICATION_TYPE":"U","NORAD_CAT_ID":48581,"ELEMENT_SET_NO":999,"REV_AT_EPOCH":26565,"BSTAR":-4.3567038e-5,"MEAN_MOTION_DOT":-9.3e-6,"MEAN_MOTION_DDOT":0},{"OBJECT_NAME":"COSMOS 2251 DEB","OBJECT_ID":"1993-036AL","EPOCH":"2026-03-09T15:08:47.217120","MEAN_MOTION":15.1034549,"ECCENTRICITY":0.0030621,"INCLINATION":74.0303,"RA_OF_ASC_NODE":257.926,"ARG_OF_PERICENTER":317.2462,"MEAN_ANOMALY":110.0671,"EPHEMERIS_TYPE":0,"CLASSIFICATION_TYPE":"U","NORAD_CAT_ID":33795,"ELEMENT_SET_NO":999,"REV_AT_EPOCH":91331,"BSTAR":0.001367,"MEAN_MOTION_DOT":0.00022707,"MEAN_MOTION_DDOT":0}]
